ORBCOMM FM20            
1 25416U 98046D   24118.08596085  .00002797  00000+0  10188-2 0  9996
2 25416  44.9951 348.6958 0000556 351.6925   8.3913 14.35157617344489
ORBCOMM FM16            
1 25417U 98046E   24117.70589235  .00003461  00000+0  12251-2 0  9996
2 25417  44.9951 346.3627 0003957   5.8015 354.2878 14.36115668344321
ORBCOMM FM15            
1 25418U 98046F   24118.07731131  .00003527  00000+0  12544-2 0  9990
2 25418  44.9979 348.6348 0003596  10.5751 349.5171 14.35847884344555
ORBCOMM FM14            
1 25419U 98046G   24117.89766366  .00004185  00000+0  14745-2 0  9994
2 25419  44.9967 348.6169 0002418 357.3348  17.3276 14.36008356344314
ORBCOMM FM13            
1 25420U 98046H   24117.79459147  .00003254  00000+0  11737-2 0  9995
2 25420  44.9980 353.8987 0004716 348.7677  11.3064 14.35300194344491
ORBCOMM FM21            
1 25475U 98053A   24118.16224924  .00003327  00000+0  12005-2 0  9998
2 25475  45.0077  76.4604 0002342 309.5135  50.5505 14.35243053337768
ORBCOMM FM22            
1 25476U 98053B   24118.14472605  .00003937  00000+0  13970-2 0  9997
2 25476  45.0073  73.8834 0003801 302.9661  57.0821 14.35762378337784
ORBCOMM FM23            
1 25477U 98053C   24117.63404168  .00003529  00000+0  12695-2 0  9990
2 25477  45.0076  81.3848 0003339 301.0044  59.0475 14.35280772337508
